{
  "type": "FeatureCollection",
  "features": [
    {
      "type": "Feature",
      "properties": {
        "norad_id": 30326,
        "name": "FENGYUN 1C DEB",
        "group": "fengyun-1c-debris",
        "lat": 77.62135372433238,
        "lon": 97.18749272561733,
        "alt_km": 893.4354349025043,
        "timestamp": "2025-12-11T20:41:15.356457+00:00",
        "meta_object_name": "FENGYUN 1C DEB",
        "meta_object_id": "1999-025AAM",
        "meta_epoch": "2025-12-11T11:33:27.502848",
        "meta_mean_motion": 13.85474255,
        "meta_eccentricity": 0.01424266,
        "meta_inclination": 98.6542,
        "meta_ra_of_asc_node": 232.8948,
        "meta_arg_of_pericenter": 33.9809,
        "meta_mean_anomaly": 327.0371,
        "meta_ephemeris_type": 0,
        "meta_classification_type": "U",
        "meta_norad_cat_id": 30326,
        "meta_element_set_no": 999,
        "meta_rev_at_epoch": 95438,
        "meta_bstar": 0.00028644128,
        "meta_mean_motion_dot": 3.14e-06,
        "meta_mean_motion_ddot": 0,
        "tle_line1": "1 30326U 99025AAM 25345.48156832  .00000314  00000+0  28644-3 0  9999",
        "tle_line2": "2 30326  98.6542 232.8948 0142426  33.9809 327.0371 13.85474255954383"
      },
      "geometry": {
        "type": "Point",
        "coordinates": [
          97.18749272561733,
          77.62135372433238
        ]
      }
    },
    {
      "type": "Feature",
      "properties": {
        "norad_id": 30327,
        "name": "FENGYUN 1C DEB",
        "group": "fengyun-1c-debris",
        "lat": -46.919685670280366,
        "lon": 51.073609928666755,
        "alt_km": 826.4494393475616,
        "timestamp": "2025-12-11T20:41:15.356467+00:00",
        "meta_object_name": "FENGYUN 1C DEB",
        "meta_object_id": "1999-025AAN",
        "meta_epoch": "2025-12-11T06:40:35.439744",
        "meta_mean_motion": 14.17968186,
        "meta_eccentricity": 0.01168868,
        "meta_inclination": 98.445,
        "meta_ra_of_asc_node": 239.6594,
        "meta_arg_of_pericenter": 147.0789,
        "meta_mean_anomaly": 340.6978,
        "meta_ephemeris_type": 0,
        "meta_classification_type": "U",
        "meta_norad_cat_id": 30327,
        "meta_element_set_no": 999,
        "meta_rev_at_epoch": 96422,
        "meta_bstar": 0.0025913683,
        "meta_mean_motion_dot": 5.637e-05,
        "meta_mean_motion_ddot": 0,
        "tle_line1": "1 30327U 99025AAN 25345.27818796  .00005637  00000+0  25914-2 0  9990",
        "tle_line2": "2 30327  98.4450 239.6594 0116886 147.0789 340.6978 14.17968186964222"
      },
      "geometry": {
        "type": "Point",
        "coordinates": [
          51.073609928666755,
          -46.919685670280366
        ]
      }
    },
    {
      "type": "Feature",
      "properties": {
        "norad_id": 30328,
        "name": "FENGYUN 1C DEB",
        "group": "fengyun-1c-debris",
        "lat": 38.25212791160245,
        "lon": -10.913117948192482,
        "alt_km": 849.840748188959,
        "timestamp": "2025-12-11T20:41:15.356477+00:00",
        "meta_object_name": "FENGYUN 1C DEB",
        "meta_object_id": "1999-025AAP",
        "meta_epoch": "2025-12-11T12:43:08.919840",
        "meta_mean_motion": 14.12472868,
        "meta_eccentricity": 0.00057251,
        "meta_inclination": 98.6865,
        "meta_ra_of_asc_node": 355.6876,
        "meta_arg_of_pericenter": 155.7982,
        "meta_mean_anomaly": 355.7864,
        "meta_ephemeris_type": 0,
        "meta_classification_type": "U",
        "meta_norad_cat_id": 30328,
        "meta_element_set_no": 999,
        "meta_rev_at_epoch": 97247,
        "meta_bstar": 0.00019439364,
        "meta_mean_motion_dot": 3.16e-06,
        "meta_mean_motion_ddot": 0,
        "tle_line1": "1 30328U 99025AAP 25345.52996435  .00000316  00000+0  19439-3 0  9991",
        "tle_line2": "2 30328  98.6865 355.6876 0005725 155.7982 355.7864 14.12472868972476"
      },
      "geometry": {
        "type": "Point",
        "coordinates": [
          -10.913117948192482,
          38.25212791160245
        ]
      }
    },
    {
      "type": "Feature",
      "properties": {
        "norad_id": 30329,
        "name": "FENGYUN 1C DEB",
        "group": "fengyun-1c-debris",
        "lat": 5.696597856529056,
        "lon": 86.17631076984615,
        "alt_km": 1016.7171563307365,
        "timestamp": "2025-12-11T20:41:15.356486+00:00",
        "meta_object_name": "FENGYUN 1C DEB",
        "meta_object_id": "1999-025AAQ",
        "meta_epoch": "2025-12-11T06:43:50.276064",
        "meta_mean_motion": 13.86739048,
        "meta_eccentricity": 0.01423455,
        "meta_inclination": 99.2618,
        "meta_ra_of_asc_node": 264.6679,
        "meta_arg_of_pericenter": 39.4127,
        "meta_mean_anomaly": 111.9228,
        "meta_ephemeris_type": 0,
        "meta_classification_type": "U",
        "meta_norad_cat_id": 30329,
        "meta_element_set_no": 999,
        "meta_rev_at_epoch": 95390,
        "meta_bstar": 0.00070265501,
        "meta_mean_motion_dot": 8.43e-06,
        "meta_mean_motion_ddot": 0,
        "tle_line1": "1 30329U 99025AAQ 25345.28044301  .00000843  00000+0  70266-3 0  9991",
        "tle_line2": "2 30329  99.2618 264.6679 0142345  39.4127 111.9228 13.86739048953908"
      },
      "geometry": {
        "type": "Point",
        "coordinates": [
          86.17631076984615,
          5.696597856529056
        ]
      }
    },
    {
      "type": "Feature",
      "properties": {
        "norad_id": 30330,
        "name": "FENGYUN 1C DEB",
        "group": "fengyun-1c-debris",
        "lat": -43.587118628081484,
        "lon": 149.70314740197838,
        "alt_km": 852.3821700846229,
        "timestamp": "2025-12-11T20:41:15.356497+00:00",
        "meta_object_name": "FENGYUN 1C DEB",
        "meta_object_id": "1999-025AAR",
        "meta_epoch": "2025-12-11T11:39:46.555200",
        "meta_mean_motion": 13.82054054,
        "meta_eccentricity": 0.01875799,
        "meta_inclination": 98.8864,
        "meta_ra_of_asc_node": 337.9127,
        "meta_arg_of_pericenter": 188.1727,
        "meta_mean_anomaly": 324.8373,
        "meta_ephemeris_type": 0,
        "meta_classification_type": "U",
        "meta_norad_cat_id": 30330,
        "meta_element_set_no": 999,
        "meta_rev_at_epoch": 94640,
        "meta_bstar": 0.0018158916,
        "meta_mean_motion_dot": 2.193e-05,
        "meta_mean_motion_ddot": 0,
        "tle_line1": "1 30330U 99025AAR 25345.48595550  .00002193  00000+0  18159-2 0  9994",
        "tle_line2": "2 30330  98.8864 337.9127 0187579 188.1727 324.8373 13.82054054946402"
      },
      "geometry": {
        "type": "Point",
        "coordinates": [
          149.70314740197838,
          -43.587118628081484
        ]
      }
    },
    {
      "type": "Feature",
      "properties": {
        "norad_id": 30331,
        "name": "FENGYUN 1C DEB",
        "group": "fengyun-1c-debris",
        "lat": 42.50889400239199,
        "lon": 12.148126759826589,
        "alt_km": 838.580949619758,
        "timestamp": "2025-12-11T20:41:15.356506+00:00",
        "meta_object_name": "FENGYUN 1C DEB",
        "meta_object_id": "1999-025AAS",
        "meta_epoch": "2025-12-11T14:19:57.304992",
        "meta_mean_motion": 13.97827707,
        "meta_eccentricity": 0.00964359,
        "meta_inclination": 98.9569,
        "meta_ra_of_asc_node": 20.2017,
        "meta_arg_of_pericenter": 11.1268,
        "meta_mean_anomaly": 139.7659,
        "meta_ephemeris_type": 0,
        "meta_classification_type": "U",
        "meta_norad_cat_id": 30331,
        "meta_element_set_no": 999,
        "meta_rev_at_epoch": 96103,
        "meta_bstar": 0.00052187815,
        "meta_mean_motion_dot": 7.25e-06,
        "meta_mean_motion_ddot": 0,
        "tle_line1": "1 30331U 99025AAS 25345.59719103  .00000725  00000+0  52188-3 0  9999",
        "tle_line2": "2 30331  98.9569  20.2017 0096435  11.1268 139.7659 13.97827707961036"
      },
      "geometry": {
        "type": "Point",
        "coordinates": [
          12.148126759826589,
          42.50889400239199
        ]
      }
    },
    {
      "type": "Feature",
      "properties": {
        "norad_id": 30332,
        "name": "FENGYUN 1C DEB",
        "group": "fengyun-1c-debris",
        "lat": 46.75256256580101,
        "lon": 147.85881120626257,
        "alt_km": 854.2386843469585,
        "timestamp": "2025-12-11T20:41:15.356538+00:00",
        "meta_object_name": "FENGYUN 1C DEB",
        "meta_object_id": "1999-025AAT",
        "meta_epoch": "2025-12-11T11:53:47.158080",
        "meta_mean_motion": 13.76707841,
        "meta_eccentricity": 0.01780647,
        "meta_inclination": 99.7151,
        "meta_ra_of_asc_node": 316.9914,
        "meta_arg_of_pericenter": 106.1973,
        "meta_mean_anomaly": 10.6875,
        "meta_ephemeris_type": 0,
        "meta_classification_type": "U",
        "meta_norad_cat_id": 30332,
        "meta_element_set_no": 999,
        "meta_rev_at_epoch": 94698,
        "meta_bstar": 0.00057184605,
        "meta_mean_motion_dot": 5.86e-06,
        "meta_mean_motion_ddot": 0,
        "tle_line1": "1 30332U 99025AAT 25345.49568470  .00000586  00000+0  57185-3 0  9995",
        "tle_line2": "2 30332  99.7151 316.9914 0178064 106.1973  10.6875 13.76707841946988"
      },
      "geometry": {
        "type": "Point",
        "coordinates": [
          147.85881120626257,
          46.75256256580101
        ]
      }
    }
  ]
}